{
  "type": "FeatureCollection",
  "features": [
    {
      "type": "Feature",
      "properties": {
        "norad_id": 37836,
        "name": "EUTELSAT 16A",
        "group": "eutelsat",
        "lat": 0.06573520259655297,
        "lon": 59.30106324841584,
        "alt_km": 35805.510398784725,
        "timestamp": "2025-12-26T20:30:45.604371+00:00",
        "meta_object_name": "EUTELSAT 16A",
        "meta_object_id": "2011-057A",
        "meta_epoch": "2025-12-26T08:43:38.554752",
        "meta_mean_motion": 1.00271654,
        "meta_eccentricity": 0.00058268,
        "meta_inclination": 0.0554,
        "meta_ra_of_asc_node": 352.4326,
        "meta_arg_of_pericenter": 284.7963,
        "meta_mean_anomaly": 324.775,
        "meta_ephemeris_type": 0,
        "meta_classification_type": "U",
        "meta_norad_cat_id": 37836,
        "meta_element_set_no": 999,
        "meta_rev_at_epoch": 559,
        "meta_bstar": 0,
        "meta_mean_motion_dot": 1.26e-06,
        "meta_mean_motion_ddot": 0,
        "tle_line1": "1 37836U 11057A   25360.36364068  .00000126  00000+0  00000+0 0  9990",
        "tle_line2": "2 37836   0.0554 352.4326 0005826 284.7963 324.7750  1.00271654  5591"
      },
      "geometry": {
        "type": "Point",
        "coordinates": [
          59.30106324841584,
          0.06573520259655297
        ]
      }
    },
    {
      "type": "Feature",
      "properties": {
        "norad_id": 38992,
        "name": "EUTELSAT 21B",
        "group": "eutelsat",
        "lat": 0.07806519743510293,
        "lon": 64.87530904077738,
        "alt_km": 35797.10547814142,
        "timestamp": "2025-12-26T20:30:45.604382+00:00",
        "meta_object_name": "EUTELSAT 21B",
        "meta_object_id": "2012-062B",
        "meta_epoch": "2025-12-26T02:51:53.978400",
        "meta_mean_motion": 1.00271578,
        "meta_eccentricity": 0.00032369,
        "meta_inclination": 0.0653,
        "meta_ra_of_asc_node": 352.0891,
        "meta_arg_of_pericenter": 288.9417,
        "meta_mean_anomaly": 238.3901,
        "meta_ephemeris_type": 0,
        "meta_classification_type": "U",
        "meta_norad_cat_id": 38992,
        "meta_element_set_no": 999,
        "meta_rev_at_epoch": 4809,
        "meta_bstar": 0,
        "meta_mean_motion_dot": 1.52e-06,
        "meta_mean_motion_ddot": 0,
        "tle_line1": "1 38992U 12062B   25360.11937475  .00000152  00000+0  00000+0 0  9991",
        "tle_line2": "2 38992   0.0653 352.0891 0003236 288.9417 238.3901  1.00271578 48096"
      },
      "geometry": {
        "type": "Point",
        "coordinates": [
          64.87530904077738,
          0.07806519743510293
        ]
      }
    },
    {
      "type": "Feature",
      "properties": {
        "norad_id": 39020,
        "name": "EUTELSAT 70B",
        "group": "eutelsat",
        "lat": 0.06889244928972665,
        "lon": 113.74391326573382,
        "alt_km": 35799.938602186085,
        "timestamp": "2025-12-26T20:30:45.604393+00:00",
        "meta_object_name": "EUTELSAT 70B",
        "meta_object_id": "2012-069A",
        "meta_epoch": "2025-12-26T11:39:08.580672",
        "meta_mean_motion": 1.00272018,
        "meta_eccentricity": 0.00041407,
        "meta_inclination": 0.0613,
        "meta_ra_of_asc_node": 350.7293,
        "meta_arg_of_pericenter": 265.6164,
        "meta_mean_anomaly": 84.1659,
        "meta_ephemeris_type": 0,
        "meta_classification_type": "U",
        "meta_norad_cat_id": 39020,
        "meta_element_set_no": 999,
        "meta_rev_at_epoch": 4777,
        "meta_bstar": 0,
        "meta_mean_motion_dot": -2.1e-07,
        "meta_mean_motion_ddot": 0,
        "tle_line1": "1 39020U 12069A   25360.48551598 -.00000021  00000+0  00000+0 0  9995",
        "tle_line2": "2 39020   0.0613 350.7293 0004140 265.6164  84.1659  1.00272018 47773"
      },
      "geometry": {
        "type": "Point",
        "coordinates": [
          113.74391326573382,
          0.06889244928972665
        ]
      }
    },
    {
      "type": "Feature",
      "properties": {
        "norad_id": 39122,
        "name": "EUTELSAT 117 WEST A",
        "group": "eutelsat",
        "lat": -0.02586309849066531,
        "lon": -73.51915608226288,
        "alt_km": 35774.404567186895,
        "timestamp": "2025-12-26T20:30:45.604404+00:00",
        "meta_object_name": "EUTELSAT 117 WEST A",
        "meta_object_id": "2013-012A",
        "meta_epoch": "2025-12-26T14:11:16.512576",
        "meta_mean_motion": 1.00270803,
        "meta_eccentricity": 0.00028469,
        "meta_inclination": 0.0157,
        "meta_ra_of_asc_node": 330.547,
        "meta_arg_of_pericenter": 308.5899,
        "meta_mean_anomaly": 272.217,
        "meta_ephemeris_type": 0,
        "meta_classification_type": "U",
        "meta_norad_cat_id": 39122,
        "meta_element_set_no": 999,
        "meta_rev_at_epoch": 4670,
        "meta_bstar": 0,
        "meta_mean_motion_dot": 9e-08,
        "meta_mean_motion_ddot": 0,
        "tle_line1": "1 39122U 13012A   25360.59116334  .00000009  00000+0  00000+0 0  9999",
        "tle_line2": "2 39122   0.0157 330.5470 0002846 308.5899 272.2170  1.00270803 46705"
      },
      "geometry": {
        "type": "Point",
        "coordinates": [
          -73.51915608226288,
          -0.02586309849066531
        ]
      }
    },
    {
      "type": "Feature",
      "properties": {
        "norad_id": 39163,
        "name": "EUTELSAT 7B",
        "group": "eutelsat",
        "lat": 0.05379263446733945,
        "lon": 50.32419472552993,
        "alt_km": 35785.435429048215,
        "timestamp": "2025-12-26T20:30:45.604415+00:00",
        "meta_object_name": "EUTELSAT 7B",
        "meta_object_id": "2013-022A",
        "meta_epoch": "2025-12-26T08:51:38.739168",
        "meta_mean_motion": 1.00271815,
        "meta_eccentricity": 0.00047181,
        "meta_inclination": 0.0666,
        "meta_ra_of_asc_node": 12.0633,
        "meta_arg_of_pericenter": 310.169,
        "meta_mean_anomaly": 272.7878,
        "meta_ephemeris_type": 0,
        "meta_classification_type": "U",
        "meta_norad_cat_id": 39163,
        "meta_element_set_no": 999,
        "meta_rev_at_epoch": 4621,
        "meta_bstar": 0,
        "meta_mean_motion_dot": 7e-07,
        "meta_mean_motion_ddot": 0,
        "tle_line1": "1 39163U 13022A   25360.36919837  .00000070  00000+0  00000+0 0  9997",
        "tle_line2": "2 39163   0.0666  12.0633 0004718 310.1690 272.7878  1.00271815 46216"
      },
      "geometry": {
        "type": "Point",
        "coordinates": [
          50.32419472552993,
          0.05379263446733945
        ]
      }
    },
    {
      "type": "Feature",
      "properties": {
        "norad_id": 39612,
        "name": "EXPRESS-AT1",
        "group": "eutelsat",
        "lat": 0.012248621391334308,
        "lon": 99.28330014814996,
        "alt_km": 35780.72996604422,
        "timestamp": "2025-12-26T20:30:45.604425+00:00",
        "meta_object_name": "EXPRESS-AT1",
        "meta_object_id": "2014-010A",
        "meta_epoch": "2025-12-26T04:01:38.790048",
        "meta_mean_motion": 1.00275867,
        "meta_eccentricity": 0.00013564,
        "meta_inclination": 0.0174,
        "meta_ra_of_asc_node": 279.8877,
        "meta_arg_of_pericenter": 223.1198,
        "meta_mean_anomaly": 68.3278,
        "meta_ephemeris_type": 0,
        "meta_classification_type": "U",
        "meta_norad_cat_id": 39612,
        "meta_element_set_no": 999,
        "meta_rev_at_epoch": 4308,
        "meta_bstar": 0,
        "meta_mean_motion_dot": 1e-06,
        "meta_mean_motion_ddot": 0,
        "tle_line1": "1 39612U 14010A   25360.16781007  .00000100  00000+0  00000+0 0  9992",
        "tle_line2": "2 39612   0.0174 279.8877 0001356 223.1198  68.3278  1.00275867 43089"
      },
      "geometry": {
        "type": "Point",
        "coordinates": [
          99.28330014814996,
          0.012248621391334308
        ]
      }
    },
    {
      "type": "Feature",
      "properties": {
        "norad_id": 39613,
        "name": "EXPRESS-AT2",
        "group": "eutelsat",
        "lat": -0.011260880535258387,
        "lon": -176.88125320871262,
        "alt_km": 35786.37183363017,
        "timestamp": "2025-12-26T20:30:45.604436+00:00",
        "meta_object_name": "EXPRESS-AT2",
        "meta_object_id": "2014-010B",
        "meta_epoch": "2025-12-26T12:18:38.668320",
        "meta_mean_motion": 1.00271236,
        "meta_eccentricity": 0.0001659,
        "meta_inclination": 0.0153,
        "meta_ra_of_asc_node": 313.7509,
        "meta_arg_of_pericenter": 320.1306,
        "meta_mean_anomaly": 145.8986,
        "meta_ephemeris_type": 0,
        "meta_classification_type": "U",
        "meta_norad_cat_id": 39613,
        "meta_element_set_no": 999,
        "meta_rev_at_epoch": 4276,
        "meta_bstar": 0,
        "meta_mean_motion_dot": -2.59e-06,
        "meta_mean_motion_ddot": 0,
        "tle_line1": "1 39613U 14010B   25360.51294755 -.00000259  00000+0  00000+0 0  9997",
        "tle_line2": "2 39613   0.0153 313.7509 0001659 320.1306 145.8986  1.00271236 42769"
      },
      "geometry": {
        "type": "Point",
        "coordinates": [
          -176.88125320871262,
          -0.011260880535258387
        ]
      }
    }
  ]
}